METAR KPNS 290653Z AUTO 11018G24KT 10SM BKN027 OVC060 19/11 A3029 RMK AO2 SLP257 T01890111